{
  "type": "FeatureCollection",
  "features": [
    {
      "type": "Feature",
      "id": "d4c3b2a1-0447-49f8-b1c2-3d4e5f6a7b8c",
      "geometry": {
        "type": "Point",
        "coordinates": [
          31.1342,
          29.9792
        ]
      },
      "properties": {
        "id": "d4c3b2a1-0447-49f8-b1c2-3d4e5f6a7b8c",
        "canonical_publish_id": "d4c3b2a1-0447-49f8-b1c2-3d4e5f6a7b8c",
        "source_record_id": "receHpSDGZ82Cx05k",
        "legacy_ids": [
          "receHpSDGZ82Cx05k"
        ],
        "airtable_record_id": "receHpSDGZ82Cx05k",
        "external_id": null,
        "source_draft_id": null,
        "origin_key": "receHpSDGZ82Cx05k",
        "layer_id": "ancient_egypt",
        "layer_type": "architecture",
        "name_ru": "Великая пирамида Гизы (Пирамида Хеопса)",
        "name_en": "Great Pyramid of Giza",
        "date_start": "-2589",
        "date_construction_end": null,
        "date_end": "-2566",
        "longitude": 31.1342,
        "latitude": 29.9792,
        "influence_radius_km": 10,
        "title_short": "Последнее из сохранившихся чудес света",
        "description": "Крупнейшая египетская пирамида, гробница фараона Хуфу. Состоит из 2,3 млн блоков. Высота 146,6 м.",
        "image_url": "https://upload.wikimedia.org/wikipedia/commons/e/e7/Great_Pyramid_of_Giza_-_Pyramid_of_Khufu.jpg",
        "source_url": "https://en.wikipedia.org/wiki/Great_Pyramid_of_Giza",
        "source_ids": [
          "src_great_pyramid_wikipedia"
        ],
        "source_refs": [
          {
            "source_id": "src_great_pyramid_wikipedia",
            "roles": [
              "general_reference"
            ],
            "is_primary": true
          }
        ],
        "media_ids": [
          "media_great_pyramid_vanderzee_2023"
        ],
        "media_refs": [
          {
            "media_id": "media_great_pyramid_vanderzee_2023",
            "display_role": "primary",
            "sort_order": 1
          }
        ],
        "relation_ids": [],
        "source_license": "CC BY-SA",
        "coordinates_confidence": "exact",
        "coordinates_source": "Britannica",
        "sequence_order": null,
        "tags": [],
        "validated": true,
        "date_valid": true,
        "has_geometry": true
      }
    },
    {
      "type": "Feature",
      "id": "c4acd963-5446-409f-82af-a495ed4a39d4",
      "geometry": {
        "type": "Point",
        "coordinates": [
          -73.9755,
          40.7516
        ]
      },
      "properties": {
        "id": "c4acd963-5446-409f-82af-a495ed4a39d4",
        "canonical_publish_id": "c4acd963-5446-409f-82af-a495ed4a39d4",
        "source_record_id": "recHqE46e2W3EDBlO",
        "legacy_ids": [
          "b7r8u9t0-1963-4b9a-8c7d-6e5f4a3b2c1d",
          "recHqE46e2W3EDBlO"
        ],
        "airtable_record_id": "recHqE46e2W3EDBlO",
        "external_id": null,
        "source_draft_id": null,
        "origin_key": "recHqE46e2W3EDBlO",
        "layer_id": "art_deco_usa",
        "layer_type": "architecture",
        "name_ru": "Крайслер-билдинг",
        "name_en": "Chrysler Building",
        "date_start": "1928",
        "date_construction_end": null,
        "date_end": "1930",
        "longitude": -73.9755,
        "latitude": 40.7516,
        "influence_radius_km": 1,
        "title_short": "Самый узнаваемый небоскрёб в стиле ар-деко",
        "description": "Стальная корона с треугольными окнами и орнаментами. Символ индустриальной роскоши.",
        "image_url": "https://upload.wikimedia.org/wikipedia/commons/7/76/Chrysler_Building_by_David_Shankbone_Retouched.jpg",
        "source_url": "https://en.wikipedia.org/wiki/Chrysler_Building",
        "source_ids": [
          "src_chrysler_building_wikipedia"
        ],
        "source_refs": [
          {
            "source_id": "src_chrysler_building_wikipedia",
            "roles": [
              "general_reference"
            ],
            "is_primary": true
          }
        ],
        "media_ids": [
          "media_chrysler_shankbone_overand_2009"
        ],
        "media_refs": [
          {
            "media_id": "media_chrysler_shankbone_overand_2009",
            "display_role": "primary",
            "sort_order": 1
          }
        ],
        "relation_ids": [],
        "source_license": "CC BY-SA",
        "coordinates_confidence": "exact",
        "coordinates_source": "PBS",
        "sequence_order": null,
        "tags": [],
        "validated": true,
        "date_valid": true,
        "has_geometry": true
      }
    },
    {
      "type": "Feature",
      "id": "b1f1e062-b520-4894-a364-444346c9ef1c",
      "geometry": {
        "type": "Point",
        "coordinates": [
          2.1649,
          41.3917
        ]
      },
      "properties": {
        "id": "b1f1e062-b520-4894-a364-444346c9ef1c",
        "canonical_publish_id": "b1f1e062-b520-4894-a364-444346c9ef1c",
        "source_record_id": "recmLwS8nYaR2dYEF",
        "legacy_ids": [
          "m1o2d3e4-1929-4b9a-8c7d-6e5f4a3b2c1d",
          "recmLwS8nYaR2dYEF"
        ],
        "airtable_record_id": "recmLwS8nYaR2dYEF",
        "external_id": null,
        "source_draft_id": null,
        "origin_key": "recmLwS8nYaR2dYEF",
        "layer_id": "art_nouveau",
        "layer_type": "architecture",
        "name_ru": "Каса-Батльо",
        "name_en": "Casa Batlló",
        "date_start": "1904",
        "date_construction_end": null,
        "date_end": "1906",
        "longitude": 2.1649,
        "latitude": 41.3917,
        "influence_radius_km": 1,
        "title_short": "Шедевр органического модернизма Антонио Гауди",
        "description": "Реконструкция жилого дома с фасадом из мозаики и балконами-масками. Отсутствие прямых линий.",
        "image_url": "https://upload.wikimedia.org/wikipedia/commons/thumb/b/bf/Casa_Batllo_Overview_Barcelona_Spain_cut.jpg/960px-Casa_Batllo_Overview_Barcelona_Spain_cut.jpg",
        "source_url": "https://www.casabatllo.es/en/",
        "source_ids": [
          "src_casa_batllo_official"
        ],
        "source_refs": [
          {
            "source_id": "src_casa_batllo_official",
            "roles": [
              "general_reference"
            ],
            "is_primary": true
          }
        ],
        "media_ids": [
          "media_casa_batllo_christianschd_2013"
        ],
        "media_refs": [
          {
            "media_id": "media_casa_batllo_christianschd_2013",
            "display_role": "primary",
            "sort_order": 1
          }
        ],
        "relation_ids": [],
        "source_license": "CC BY-SA",
        "coordinates_confidence": "exact",
        "coordinates_source": "UNESCO",
        "sequence_order": null,
        "tags": [],
        "validated": true,
        "date_valid": true,
        "has_geometry": true
      }
    },
    {
      "type": "Feature",
      "id": "bcd1bc1c-1093-430c-ae75-a0da6c06524d",
      "geometry": {
        "type": "Point",
        "coordinates": [
          2.1203,
          48.8048
        ]
      },
      "properties": {
        "id": "bcd1bc1c-1093-430c-ae75-a0da6c06524d",
        "canonical_publish_id": "bcd1bc1c-1093-430c-ae75-a0da6c06524d",
        "source_record_id": "recIO5H5Vqw2xwfLq",
        "legacy_ids": [
          "g1a2u3d4-1904-4b9a-8c7d-6e5f4a3b2c1d",
          "recIO5H5Vqw2xwfLq"
        ],
        "airtable_record_id": "recIO5H5Vqw2xwfLq",
        "external_id": null,
        "source_draft_id": null,
        "origin_key": "recIO5H5Vqw2xwfLq",
        "layer_id": "baroque_monarchies",
        "layer_type": "architecture",
        "name_ru": "Версальский дворец",
        "name_en": "Palace of Versailles",
        "date_start": "1661",
        "date_construction_end": null,
        "date_end": "1715",
        "longitude": 2.1203,
        "latitude": 48.8048,
        "influence_radius_km": 15,
        "title_short": "Резиденция «Короля-Солнца» и символ абсолютизма",
        "description": "Грандиозный ансамбль с Зеркальной галереей и регулярными садами Ленотра. Модель барокко.",
        "image_url": "https://upload.wikimedia.org/wikipedia/commons/thumb/a/a3/Versaillespanoraama2.jpg/1280px-Versaillespanoraama2.jpg",
        "source_url": "https://en.wikipedia.org/wiki/Palace_of_Versailles",
        "source_ids": [
          "src_versailles_wikipedia"
        ],
        "source_refs": [
          {
            "source_id": "src_versailles_wikipedia",
            "roles": [
              "general_reference"
            ],
            "is_primary": true
          }
        ],
        "media_ids": [
          "media_versailles_suomi_2008"
        ],
        "media_refs": [
          {
            "media_id": "media_versailles_suomi_2008",
            "display_role": "primary",
            "sort_order": 1
          }
        ],
        "relation_ids": [],
        "source_license": "CC BY-SA",
        "coordinates_confidence": "exact",
        "coordinates_source": "UNESCO",
        "sequence_order": null,
        "tags": [],
        "validated": true,
        "date_valid": true,
        "has_geometry": true
      }
    },
    {
      "type": "Feature",
      "id": "08c92f35-cc8b-4164-a6ea-1f9c89e777dd",
      "geometry": {
        "type": "Point",
        "coordinates": [
          -1.4582,
          53.38163
        ]
      },
      "properties": {
        "id": "08c92f35-cc8b-4164-a6ea-1f9c89e777dd",
        "canonical_publish_id": "08c92f35-cc8b-4164-a6ea-1f9c89e777dd",
        "source_record_id": "recs15CbqhEKwSKen",
        "legacy_ids": [
          "recs15CbqhEKwSKen"
        ],
        "airtable_record_id": "recs15CbqhEKwSKen",
        "external_id": null,
        "source_draft_id": null,
        "origin_key": "recs15CbqhEKwSKen",
        "layer_id": "brutalism_uk",
        "layer_type": "architecture",
        "name_ru": "Парк-Хилл в Шеффилде",
        "name_en": "Park Hill, Sheffield",
        "date_start": "1957",
        "date_construction_end": null,
        "date_end": "1960",
        "longitude": -1.4582,
        "latitude": 53.38163,
        "influence_radius_km": 1,
        "title_short": "Террасный жилой мегакомплекс с «улицами в небе»",
        "description": "Крупный муниципальный жилой комплекс, ступенчато следующий рельефу холма. Каркас из обнажённого бетона и широкие галереи — «улицы в небе» — связывают квартиры с коллективными пространствами.",
        "image_url": "https://upload.wikimedia.org/wikipedia/commons/8/89/Park_Hill_May_2025.jpg",
        "source_url": "https://historicengland.org.uk/listing/the-list/list-entry/1246881",
        "source_ids": [
          "src_park_hill_historic_england"
        ],
        "source_refs": [
          {
            "source_id": "src_park_hill_historic_england",
            "roles": [
              "coordinate_evidence",
              "date_evidence",
              "description_evidence",
              "general_reference"
            ],
            "is_primary": true
          }
        ],
        "media_ids": [
          "media_park_hill_sheffield_tiger_2025"
        ],
        "media_refs": [
          {
            "media_id": "media_park_hill_sheffield_tiger_2025",
            "display_role": "primary",
            "sort_order": 1
          }
        ],
        "relation_ids": [
          "609a2665-ffcb-4ed7-8f85-3850f67371c0",
          "f2d062e1-57a8-4285-a3c8-811547476cb1"
        ],
        "source_license": "CC BY-SA",
        "coordinates_confidence": "exact",
        "coordinates_source": "Official Site",
        "sequence_order": null,
        "tags": [
          "architecture",
          "brutalism",
          "concrete",
          "housing",
          "england"
        ],
        "validated": true,
        "date_valid": true,
        "has_geometry": true
      }
    },
    {
      "type": "Feature",
      "id": "71ab11dd-f159-43d3-bcf9-711380973f0e",
      "geometry": {
        "type": "Point",
        "coordinates": [
          -0.1142,
          51.5072
        ]
      },
      "properties": {
        "id": "71ab11dd-f159-43d3-bcf9-711380973f0e",
        "canonical_publish_id": "71ab11dd-f159-43d3-bcf9-711380973f0e",
        "source_record_id": "recr1NbkVTbJwP5Ia",
        "legacy_ids": [
          "d1e2c3o4-1992-4b9a-8c7d-6e5f4a3b2c1d",
          "recr1NbkVTbJwP5Ia"
        ],
        "airtable_record_id": "recr1NbkVTbJwP5Ia",
        "external_id": null,
        "source_draft_id": null,
        "origin_key": "recr1NbkVTbJwP5Ia",
        "layer_id": "brutalism_uk",
        "layer_type": "architecture",
        "name_ru": "Королевский национальный театр",
        "name_en": "Royal National Theatre",
        "date_start": "1963",
        "date_construction_end": null,
        "date_end": "1976",
        "longitude": -0.1142,
        "latitude": 51.5072,
        "influence_radius_km": 1,
        "title_short": "Икона британского брутализма на берегу Темзы",
        "description": "Многоуровневые бетонные террасы. Использование «грубого бетона» как эстетической основы.",
        "image_url": "https://upload.wikimedia.org/wikipedia/commons/4/41/The_National_Theatre%2C_South_Bank%2C_London_-_geograph.org.uk_-_1861458.jpg",
        "source_url": "https://en.wikipedia.org/wiki/Royal_National_Theatre",
        "source_ids": [
          "src_royal_national_theatre_wikipedia"
        ],
        "source_refs": [
          {
            "source_id": "src_royal_national_theatre_wikipedia",
            "roles": [
              "general_reference"
            ],
            "is_primary": true
          }
        ],
        "media_ids": [
          "media_national_theatre_oneil_2010"
        ],
        "media_refs": [
          {
            "media_id": "media_national_theatre_oneil_2010",
            "display_role": "primary",
            "sort_order": 1
          }
        ],
        "relation_ids": [
          "2c5901a8-64e7-4538-89c6-a7f02a11f365",
          "f2d062e1-57a8-4285-a3c8-811547476cb1"
        ],
        "source_license": "CC BY-SA",
        "coordinates_confidence": "exact",
        "coordinates_source": "Dezeen",
        "sequence_order": null,
        "tags": [],
        "validated": true,
        "date_valid": true,
        "has_geometry": true
      }
    },
    {
      "type": "Feature",
      "id": "2760f275-b68a-4ff9-bc8e-01fdb12d3652",
      "geometry": {
        "type": "Point",
        "coordinates": [
          -2.697,
          53.7603
        ]
      },
      "properties": {
        "id": "2760f275-b68a-4ff9-bc8e-01fdb12d3652",
        "canonical_publish_id": "2760f275-b68a-4ff9-bc8e-01fdb12d3652",
        "source_record_id": "recY7p6R3QULYfBuC",
        "legacy_ids": [
          "recY7p6R3QULYfBuC"
        ],
        "airtable_record_id": "recY7p6R3QULYfBuC",
        "external_id": null,
        "source_draft_id": null,
        "origin_key": "recY7p6R3QULYfBuC",
        "layer_id": "brutalism_uk",
        "layer_type": "architecture",
        "name_ru": "Центральный автовокзал и паркинг Престона",
        "name_en": "Preston Central Bus Station and Car Park",
        "date_start": "1968",
        "date_construction_end": null,
        "date_end": "1969",
        "longitude": -2.697,
        "latitude": 53.7603,
        "influence_radius_km": 1,
        "title_short": "Транспортная мегаструктура с пластичными бетонными балконными лентами",
        "description": "Интегрированный автовокзал и многоэтажный паркинг, спроектированный BDP. Повторяющиеся изогнутые бетонные парапеты формируют масштабный фасад и одновременно направляют движение и защищают автомобили.",
        "image_url": "https://upload.wikimedia.org/wikipedia/commons/4/4f/Preston_Bus_Station_-_geograph.org.uk_-_1182121.jpg",
        "source_url": "https://historicengland.org.uk/listing/the-list/list-entry/1416042",
        "source_ids": [
          "src_preston_bus_station_historic_england"
        ],
        "source_refs": [
          {
            "source_id": "src_preston_bus_station_historic_england",
            "roles": [
              "coordinate_evidence",
              "date_evidence",
              "description_evidence",
              "general_reference"
            ],
            "is_primary": true
          }
        ],
        "media_ids": [
          "media_preston_bus_station_jenkins_2009"
        ],
        "media_refs": [
          {
            "media_id": "media_preston_bus_station_jenkins_2009",
            "display_role": "primary",
            "sort_order": 1
          }
        ],
        "relation_ids": [
          "2c5901a8-64e7-4538-89c6-a7f02a11f365",
          "609a2665-ffcb-4ed7-8f85-3850f67371c0"
        ],
        "source_license": "CC BY-SA",
        "coordinates_confidence": "exact",
        "coordinates_source": "Official Site",
        "sequence_order": null,
        "tags": [
          "architecture",
          "brutalism",
          "concrete",
          "england"
        ],
        "validated": true,
        "date_valid": true,
        "has_geometry": true
      }
    },
    {
      "type": "Feature",
      "id": "a1b2c3d4-1075-4f3e-8c2a-1b3a4f5e6d7c",
      "geometry": {
        "type": "Point",
        "coordinates": [
          28.9801,
          41.0086
        ]
      },
      "properties": {
        "id": "a1b2c3d4-1075-4f3e-8c2a-1b3a4f5e6d7c",
        "canonical_publish_id": "a1b2c3d4-1075-4f3e-8c2a-1b3a4f5e6d7c",
        "source_record_id": "reczZVbBhaCDZx97j",
        "legacy_ids": [
          "reczZVbBhaCDZx97j"
        ],
        "airtable_record_id": "reczZVbBhaCDZx97j",
        "external_id": null,
        "source_draft_id": null,
        "origin_key": "reczZVbBhaCDZx97j",
        "layer_id": "byzantine_empire",
        "layer_type": "architecture",
        "name_ru": "Собор Святой Софии",
        "name_en": "Hagia Sophia",
        "date_start": "0532",
        "date_construction_end": null,
        "date_end": "0537",
        "longitude": 28.9801,
        "latitude": 41.0086,
        "influence_radius_km": 1,
        "title_short": "Шедевр «Золотого века» Византии",
        "description": "Первая реализация купола на пандантивах. Символ слияния античной инженерии и восточного мистицизма.",
        "image_url": "https://upload.wikimedia.org/wikipedia/commons/4/4a/Hagia_Sophia_%28228968325%29.jpeg",
        "source_url": "https://en.wikipedia.org/wiki/Hagia_Sophia",
        "source_ids": [
          "src_hagia_sophia_wikipedia"
        ],
        "source_refs": [
          {
            "source_id": "src_hagia_sophia_wikipedia",
            "roles": [
              "general_reference"
            ],
            "is_primary": true
          }
        ],
        "media_ids": [
          "media_hagia_sophia_adli_wahid_2014"
        ],
        "media_refs": [
          {
            "media_id": "media_hagia_sophia_adli_wahid_2014",
            "display_role": "primary",
            "sort_order": 1
          }
        ],
        "relation_ids": [],
        "source_license": "CC BY-SA",
        "coordinates_confidence": "exact",
        "coordinates_source": "UNESCO",
        "sequence_order": null,
        "tags": [],
        "validated": true,
        "date_valid": true,
        "has_geometry": true
      }
    },
    {
      "type": "Feature",
      "id": "6c97b04c-9ebe-4c5e-a7e4-637b630f8e3e",
      "geometry": {
        "type": "Point",
        "coordinates": [
          23.726667,
          37.971667
        ]
      },
      "properties": {
        "id": "6c97b04c-9ebe-4c5e-a7e4-637b630f8e3e",
        "canonical_publish_id": "6c97b04c-9ebe-4c5e-a7e4-637b630f8e3e",
        "source_record_id": "recMQaGL0rOEGKm3P",
        "legacy_ids": [
          "recMQaGL0rOEGKm3P"
        ],
        "airtable_record_id": "recMQaGL0rOEGKm3P",
        "external_id": null,
        "source_draft_id": null,
        "origin_key": "recMQaGL0rOEGKm3P",
        "layer_id": "classical_greece",
        "layer_type": "architecture",
        "name_ru": "Эрехтейон",
        "name_en": "Erechtheion",
        "date_start": "-0421",
        "date_construction_end": null,
        "date_end": "-0406",
        "longitude": 23.726667,
        "latitude": 37.971667,
        "influence_radius_km": 1,
        "title_short": "Асимметричный ионический храмовый комплекс Акрополя",
        "description": "Ионический храмовый комплекс на афинском Акрополе, приспособленный к неровному рельефу и нескольким культам. Портик кариатид стал его наиболее узнаваемой частью.",
        "image_url": "https://upload.wikimedia.org/wikipedia/commons/thumb/5/58/Erechtheion%2C_Athens_-_Joy_of_Museum.jpg/1280px-Erechtheion%2C_Athens_-_Joy_of_Museum.jpg",
        "source_url": "https://www.theacropolismuseum.gr/en/other-monuments-periklean-building-programme/erechtheion",
        "source_ids": [
          "src_erechtheion_acropolis_museum"
        ],
        "source_refs": [
          {
            "source_id": "src_erechtheion_acropolis_museum",
            "roles": [
              "coordinate_evidence",
              "date_evidence",
              "description_evidence",
              "general_reference"
            ],
            "is_primary": true
          }
        ],
        "media_ids": [
          "media_erechtheion_joyofmuseums_2018"
        ],
        "media_refs": [
          {
            "media_id": "media_erechtheion_joyofmuseums_2018",
            "display_role": "primary",
            "sort_order": 1
          }
        ],
        "relation_ids": [
          "99db0449-a56d-4ef8-9171-4c08fbfd577e"
        ],
        "source_license": "CC BY-SA",
        "coordinates_confidence": "exact",
        "coordinates_source": "Official Site",
        "sequence_order": null,
        "tags": [
          "architecture",
          "ancient",
          "temple",
          "greece",
          "athens",
          "acropolis"
        ],
        "validated": true,
        "date_valid": true,
        "has_geometry": true
      }
    },
    {
      "type": "Feature",
      "id": "c7b6a5d4-0532-4f9e-8d2c-1b3a4f5e6d7c",
      "geometry": {
        "type": "Point",
        "coordinates": [
          23.7266,
          37.9715
        ]
      },
      "properties": {
        "id": "c7b6a5d4-0532-4f9e-8d2c-1b3a4f5e6d7c",
        "canonical_publish_id": "c7b6a5d4-0532-4f9e-8d2c-1b3a4f5e6d7c",
        "source_record_id": "recZbIE0P3vL62bPj",
        "legacy_ids": [
          "recZbIE0P3vL62bPj"
        ],
        "airtable_record_id": "recZbIE0P3vL62bPj",
        "external_id": null,
        "source_draft_id": null,
        "origin_key": "recZbIE0P3vL62bPj",
        "layer_id": "classical_greece",
        "layer_type": "architecture",
        "name_ru": "Парфенон",
        "name_en": "Parthenon",
        "date_start": "-0447",
        "date_construction_end": null,
        "date_end": "-0432",
        "longitude": 23.7266,
        "latitude": 37.9715,
        "influence_radius_km": 1,
        "title_short": "Кульминация классического дорического ордера",
        "description": "Мраморный храм Афины на Акрополе. Использует сложные оптические корректировки линий.",
        "image_url": "https://upload.wikimedia.org/wikipedia/commons/d/da/The_Parthenon_in_Athens.jpg",
        "source_url": "https://en.wikipedia.org/wiki/Parthenon",
        "source_ids": [
          "src_parthenon_wikipedia"
        ],
        "source_refs": [
          {
            "source_id": "src_parthenon_wikipedia",
            "roles": [
              "general_reference"
            ],
            "is_primary": true
          }
        ],
        "media_ids": [
          "media_parthenon_swayne_1978"
        ],
        "media_refs": [
          {
            "media_id": "media_parthenon_swayne_1978",
            "display_role": "primary",
            "sort_order": 1
          }
        ],
        "relation_ids": [
          "99db0449-a56d-4ef8-9171-4c08fbfd577e"
        ],
        "source_license": "CC BY-SA",
        "coordinates_confidence": "exact",
        "coordinates_source": "Saylor",
        "sequence_order": null,
        "tags": [],
        "validated": true,
        "date_valid": true,
        "has_geometry": true
      }
    },
    {
      "type": "Feature",
      "id": "aa8103b8-a3a7-4984-a5b4-fff1f9b6a8c3",
      "geometry": {
        "type": "Point",
        "coordinates": [
          21.9002,
          37.4297
        ]
      },
      "properties": {
        "id": "aa8103b8-a3a7-4984-a5b4-fff1f9b6a8c3",
        "canonical_publish_id": "aa8103b8-a3a7-4984-a5b4-fff1f9b6a8c3",
        "source_record_id": "reczXw6WOK1fnab7V",
        "legacy_ids": [
          "reczXw6WOK1fnab7V"
        ],
        "airtable_record_id": "reczXw6WOK1fnab7V",
        "external_id": null,
        "source_draft_id": null,
        "origin_key": "reczXw6WOK1fnab7V",
        "layer_id": "classical_greece",
        "layer_type": "architecture",
        "name_ru": "Храм Аполлона Эпикурия в Бассах",
        "name_en": "Temple of Apollo Epicurius at Bassae",
        "date_start": "-0450",
        "date_construction_end": null,
        "date_end": "-0400",
        "longitude": 21.9002,
        "latitude": 37.4297,
        "influence_radius_km": 2,
        "title_short": "Горный храм, объединивший дорический, ионический и коринфский ордера",
        "description": "Храм середины V века до н. э. в аркадском ландшафте. В его композиции сочетаются архаические черты и новаторские решения, включая один из раннейших известных коринфских капителей.",
        "image_url": "https://upload.wikimedia.org/wikipedia/commons/thumb/8/80/Temple_of_Apollo_at_Bassai_from_the_S_by_Paul_des_Granges_%281869%29_-_crop.jpg/1280px-Temple_of_Apollo_at_Bassai_from_the_S_by_Paul_des_Granges_%281869%29_-_crop.jpg",
        "source_url": "https://whc.unesco.org/en/list/392/",
        "source_ids": [
          "src_bassae_unesco"
        ],
        "source_refs": [
          {
            "source_id": "src_bassae_unesco",
            "roles": [
              "coordinate_evidence",
              "date_evidence",
              "description_evidence",
              "general_reference"
            ],
            "is_primary": true
          }
        ],
        "media_ids": [
          "media_bassae_des_granges_1869"
        ],
        "media_refs": [
          {
            "media_id": "media_bassae_des_granges_1869",
            "display_role": "primary",
            "sort_order": 1
          }
        ],
        "relation_ids": [],
        "source_license": "PD",
        "coordinates_confidence": "exact",
        "coordinates_source": "UNESCO",
        "sequence_order": null,
        "tags": [
          "architecture",
          "ancient",
          "temple",
          "greece",
          "apollo",
          "sanctuary"
        ],
        "validated": true,
        "date_valid": true,
        "has_geometry": true
      }
    },
    {
      "type": "Feature",
      "id": "f3c73867-e20a-457b-a974-7e8478ac0431",
      "geometry": {
        "type": "Point",
        "coordinates": [
          13.395,
          52.502
        ]
      },
      "properties": {
        "id": "f3c73867-e20a-457b-a974-7e8478ac0431",
        "canonical_publish_id": "f3c73867-e20a-457b-a974-7e8478ac0431",
        "source_record_id": "recV3Kj5ounTF55mw",
        "legacy_ids": [
          "recV3Kj5ounTF55mw",
          "s1a2m3p4-5566-4b9a-8c7d-6e5f4a3b2c1d"
        ],
        "airtable_record_id": "recV3Kj5ounTF55mw",
        "external_id": null,
        "source_draft_id": null,
        "origin_key": "recV3Kj5ounTF55mw",
        "layer_id": "deconstructivism",
        "layer_type": "architecture",
        "name_ru": "Еврейский музей в Берлине",
        "name_en": "Jewish Museum Berlin",
        "date_start": "1992",
        "date_construction_end": null,
        "date_end": "1999",
        "longitude": 13.395,
        "latitude": 52.502,
        "influence_radius_km": 1,
        "title_short": "Архитектурное воплощение немецко-еврейской истории",
        "description": "Зигзагообразное здание Либескинда с «пустотами», передающее ощущение исторического разрыва.",
        "image_url": "https://upload.wikimedia.org/wikipedia/commons/thumb/a/a5/Berlin_J%C3%BCdisches_Museum_und_der_Libeskind-Bau_%28cropped%29.jpg/1280px-Berlin_J%C3%BCdisches_Museum_und_der_Libeskind-Bau_%28cropped%29.jpg",
        "source_url": "https://www.jmberlin.de/en/libeskind-building",
        "source_ids": [
          "src_jewish_museum_berlin_official"
        ],
        "source_refs": [
          {
            "source_id": "src_jewish_museum_berlin_official",
            "roles": [
              "general_reference"
            ],
            "is_primary": true
          }
        ],
        "media_ids": [
          "media_jewish_museum_berlin_sliwecki_2017"
        ],
        "media_refs": [
          {
            "media_id": "media_jewish_museum_berlin_sliwecki_2017",
            "display_role": "primary",
            "sort_order": 1
          }
        ],
        "relation_ids": [],
        "source_license": "CC BY-SA",
        "coordinates_confidence": "exact",
        "coordinates_source": "Official Site",
        "sequence_order": null,
        "tags": [],
        "validated": true,
        "date_valid": true,
        "has_geometry": true
      }
    },
    {
      "type": "Feature",
      "id": "81dce408-f483-4bf3-b1a2-2f4e52864517",
      "geometry": {
        "type": "Point",
        "coordinates": [
          1.083,
          51.2798
        ]
      },
      "properties": {
        "id": "81dce408-f483-4bf3-b1a2-2f4e52864517",
        "canonical_publish_id": "81dce408-f483-4bf3-b1a2-2f4e52864517",
        "source_record_id": "reczKemCzdUUZ5Zgk",
        "legacy_ids": [
          "reczKemCzdUUZ5Zgk"
        ],
        "airtable_record_id": "reczKemCzdUUZ5Zgk",
        "external_id": null,
        "source_draft_id": null,
        "origin_key": "reczKemCzdUUZ5Zgk",
        "layer_id": "gothic_europe",
        "layer_type": "architecture",
        "name_ru": "Кентерберийский собор",
        "name_en": "Canterbury Cathedral",
        "date_start": "1174",
        "date_construction_end": null,
        "date_end": "1503",
        "longitude": 1.083,
        "latitude": 51.2798,
        "influence_radius_km": 2,
        "title_short": "Последовательность ранней и перпендикулярной английской готики",
        "description": "После пожара 1174 года хор и восточная часть собора были перестроены в раннеготических формах; последующие кампании добавили зрелую и перпендикулярную готику. Собор стал одним из главных центров паломничества Англии.",
        "image_url": "https://upload.wikimedia.org/wikipedia/commons/thumb/6/6d/Exterior_of_Canterbury_Cathedral%2C_August_2022.jpg/1280px-Exterior_of_Canterbury_Cathedral%2C_August_2022.jpg",
        "source_url": "https://whc.unesco.org/en/list/496/",
        "source_ids": [
          "src_canterbury_cathedral_unesco"
        ],
        "source_refs": [
          {
            "source_id": "src_canterbury_cathedral_unesco",
            "roles": [
              "coordinate_evidence",
              "date_evidence",
              "description_evidence",
              "general_reference"
            ],
            "is_primary": true
          }
        ],
        "media_ids": [
          "media_canterbury_cathedral_no_swan_so_fine_2022"
        ],
        "media_refs": [
          {
            "media_id": "media_canterbury_cathedral_no_swan_so_fine_2022",
            "display_role": "primary",
            "sort_order": 1
          }
        ],
        "relation_ids": [
          "a29aa17f-0b04-4a94-83ab-e6b0c4e4744f"
        ],
        "source_license": "CC BY-SA",
        "coordinates_confidence": "exact",
        "coordinates_source": "UNESCO",
        "sequence_order": null,
        "tags": [
          "architecture",
          "gothic",
          "cathedral",
          "england",
          "pilgrimage"
        ],
        "validated": true,
        "date_valid": true,
        "has_geometry": true
      }
    },
    {
      "type": "Feature",
      "id": "dc4b7dde-e7b6-4a71-8bf2-0b7056266635",
      "geometry": {
        "type": "Point",
        "coordinates": [
          1.4878,
          48.4478
        ]
      },
      "properties": {
        "id": "dc4b7dde-e7b6-4a71-8bf2-0b7056266635",
        "canonical_publish_id": "dc4b7dde-e7b6-4a71-8bf2-0b7056266635",
        "source_record_id": "rec8RKV55zHUCA4bc",
        "legacy_ids": [
          "rec8RKV55zHUCA4bc",
          "v1e2r3s4-1661-4b7a-9c2d-8e6f5a4b3c2d"
        ],
        "airtable_record_id": "rec8RKV55zHUCA4bc",
        "external_id": null,
        "source_draft_id": null,
        "origin_key": "rec8RKV55zHUCA4bc",
        "layer_id": "gothic_europe",
        "layer_type": "architecture",
        "name_ru": "Шартрский собор",
        "name_en": "Chartres Cathedral",
        "date_start": "1194",
        "date_construction_end": null,
        "date_end": "1252",
        "longitude": 1.4878,
        "latitude": 48.4478,
        "influence_radius_km": 2,
        "title_short": "Совершенный образец высокой готики",
        "description": "Храм с ансамблем витражей (2500 кв. м) и системным использованием аркбутанов.",
        "image_url": "https://upload.wikimedia.org/wikipedia/commons/8/84/Chartres_JBU01.JPG",
        "source_url": "https://whc.unesco.org/en/list/81/",
        "source_ids": [
          "src_chartres_unesco"
        ],
        "source_refs": [
          {
            "source_id": "src_chartres_unesco",
            "roles": [
              "general_reference"
            ],
            "is_primary": true
          }
        ],
        "media_ids": [
          "media_chartres_bittner_unna_2007"
        ],
        "media_refs": [
          {
            "media_id": "media_chartres_bittner_unna_2007",
            "display_role": "primary",
            "sort_order": 1
          }
        ],
        "relation_ids": [
          "27d8a886-6443-4afd-a013-f7918df5355b",
          "a29aa17f-0b04-4a94-83ab-e6b0c4e4744f"
        ],
        "source_license": "CC BY-SA",
        "coordinates_confidence": "exact",
        "coordinates_source": "UNESCO",
        "sequence_order": null,
        "tags": [],
        "validated": true,
        "date_valid": true,
        "has_geometry": true
      }
    },
    {
      "type": "Feature",
      "id": "47080747-1fb1-4dff-aaa7-5d777ef079b2",
      "geometry": {
        "type": "Point",
        "coordinates": [
          6.9583,
          50.9413
        ]
      },
      "properties": {
        "id": "47080747-1fb1-4dff-aaa7-5d777ef079b2",
        "canonical_publish_id": "47080747-1fb1-4dff-aaa7-5d777ef079b2",
        "source_record_id": "recVumBiBORgMCqvj",
        "legacy_ids": [
          "recVumBiBORgMCqvj"
        ],
        "airtable_record_id": "recVumBiBORgMCqvj",
        "external_id": null,
        "source_draft_id": null,
        "origin_key": "recVumBiBORgMCqvj",
        "layer_id": "gothic_europe",
        "layer_type": "architecture",
        "name_ru": "Кёльнский собор",
        "name_en": "Cologne Cathedral",
        "date_start": "1248",
        "date_construction_end": null,
        "date_end": "1473",
        "longitude": 6.9583,
        "latitude": 50.9413,
        "influence_radius_km": 2,
        "title_short": "Высокая готика, продолженная по средневековому замыслу в XIX веке",
        "description": "Пятинефная базилика высокой готики с монументальным западным фасадом. Средневековая кампания началась в 1248 году и остановилась в 1473-м; завершение XIX века сохранило исходный готический замысел.",
        "image_url": "https://upload.wikimedia.org/wikipedia/commons/thumb/3/3b/Cologne_Germany_Exterior-view-of-Cologne-Cathedral-05.jpg/960px-Cologne_Germany_Exterior-view-of-Cologne-Cathedral-05.jpg",
        "source_url": "https://whc.unesco.org/en/list/292/",
        "source_ids": [
          "src_cologne_cathedral_unesco"
        ],
        "source_refs": [
          {
            "source_id": "src_cologne_cathedral_unesco",
            "roles": [
              "coordinate_evidence",
              "date_evidence",
              "description_evidence",
              "general_reference"
            ],
            "is_primary": true
          }
        ],
        "media_ids": [
          "media_cologne_cathedral_aranas_2014"
        ],
        "media_refs": [
          {
            "media_id": "media_cologne_cathedral_aranas_2014",
            "display_role": "primary",
            "sort_order": 1
          }
        ],
        "relation_ids": [
          "27d8a886-6443-4afd-a013-f7918df5355b"
        ],
        "source_license": "CC BY-SA",
        "coordinates_confidence": "exact",
        "coordinates_source": "UNESCO",
        "sequence_order": null,
        "tags": [
          "architecture",
          "gothic",
          "cathedral",
          "germany",
          "cologne"
        ],
        "validated": true,
        "date_valid": true,
        "has_geometry": true
      }
    },
    {
      "type": "Feature",
      "id": "70c2ee8e-4016-46d4-be32-11d3ac7d9726",
      "geometry": {
        "type": "Point",
        "coordinates": [
          2.3522,
          48.8606
        ]
      },
      "properties": {
        "id": "70c2ee8e-4016-46d4-be32-11d3ac7d9726",
        "canonical_publish_id": "70c2ee8e-4016-46d4-be32-11d3ac7d9726",
        "source_record_id": "rec9KIQPB9M377wgE",
        "legacy_ids": [
          "n1e2o3f4-2004-4b9a-8c7d-6e5f4a3b2c1d",
          "rec9KIQPB9M377wgE"
        ],
        "airtable_record_id": "rec9KIQPB9M377wgE",
        "external_id": null,
        "source_draft_id": null,
        "origin_key": "rec9KIQPB9M377wgE",
        "layer_id": "high_tech_modern",
        "layer_type": "architecture",
        "name_ru": "Центр Жоржа Помпиду",
        "name_en": "Centre Pompidou",
        "date_start": "1971",
        "date_construction_end": null,
        "date_end": "1977",
        "longitude": 2.3522,
        "latitude": 48.8606,
        "influence_radius_km": 1,
        "title_short": "Манифест архитектуры хай-тек в центре Парижа",
        "description": "Здание «вывернутое наизнанку»: все коммуникации вынесены на фасад и выделены цветом.",
        "image_url": null,
        "source_url": "https://en.wikipedia.org/wiki/Centre_Pompidou",
        "source_ids": [
          "src_centre_pompidou_wikipedia"
        ],
        "source_refs": [
          {
            "source_id": "src_centre_pompidou_wikipedia",
            "roles": [
              "general_reference"
            ],
            "is_primary": true
          }
        ],
        "media_ids": [],
        "media_refs": [],
        "relation_ids": [],
        "source_license": "CC BY-SA",
        "coordinates_confidence": "exact",
        "coordinates_source": "Pompidou Site",
        "sequence_order": null,
        "tags": [],
        "validated": true,
        "date_valid": true,
        "has_geometry": true
      }
    },
    {
      "type": "Feature",
      "id": "f9e8d7c6-1194-4b1a-9d2c-1b3a4f5e6d7c",
      "geometry": {
        "type": "Point",
        "coordinates": [
          -3.59,
          37.1775
        ]
      },
      "properties": {
        "id": "f9e8d7c6-1194-4b1a-9d2c-1b3a4f5e6d7c",
        "canonical_publish_id": "f9e8d7c6-1194-4b1a-9d2c-1b3a4f5e6d7c",
        "source_record_id": "recS69tE4CQPTy105",
        "legacy_ids": [
          "recS69tE4CQPTy105"
        ],
        "airtable_record_id": "recS69tE4CQPTy105",
        "external_id": null,
        "source_draft_id": null,
        "origin_key": "recS69tE4CQPTy105",
        "layer_id": "islamic_spain",
        "layer_type": "architecture",
        "name_ru": "Альгамбра",
        "name_en": "Alhambra",
        "date_start": "1238",
        "date_construction_end": null,
        "date_end": "1358",
        "longitude": -3.59,
        "latitude": 37.1775,
        "influence_radius_km": 3,
        "title_short": "Дворцовый комплекс мусульманской Испании",
        "description": "Резиденция династии Насридов. Известна резьбой по стукко, мукарнами и Львиным двориком.",
        "image_url": "https://upload.wikimedia.org/wikipedia/commons/thumb/d/de/Dawn_Charles_V_Palace_Alhambra_Granada_Andalusia_Spain.jpg/1280px-Dawn_Charles_V_Palace_Alhambra_Granada_Andalusia_Spain.jpg",
        "source_url": "https://en.wikipedia.org/wiki/Alhambra",
        "source_ids": [
          "src_alhambra_wikipedia"
        ],
        "source_refs": [
          {
            "source_id": "src_alhambra_wikipedia",
            "roles": [
              "general_reference"
            ],
            "is_primary": true
          }
        ],
        "media_ids": [
          "media_alhambra_jebulon_2014"
        ],
        "media_refs": [
          {
            "media_id": "media_alhambra_jebulon_2014",
            "display_role": "primary",
            "sort_order": 1
          }
        ],
        "relation_ids": [],
        "source_license": "CC BY-SA",
        "coordinates_confidence": "exact",
        "coordinates_source": "UNESCO",
        "sequence_order": null,
        "tags": [],
        "validated": true,
        "date_valid": true,
        "has_geometry": true
      }
    },
    {
      "type": "Feature",
      "id": "f1e2d3c4-0072-4b3a-9c8d-7e6f5a4b3c2d",
      "geometry": {
        "type": "Point",
        "coordinates": [
          46.1031,
          30.9628
        ]
      },
      "properties": {
        "id": "f1e2d3c4-0072-4b3a-9c8d-7e6f5a4b3c2d",
        "canonical_publish_id": "f1e2d3c4-0072-4b3a-9c8d-7e6f5a4b3c2d",
        "source_record_id": "recylJimofuhRUv49",
        "legacy_ids": [
          "recylJimofuhRUv49"
        ],
        "airtable_record_id": "recylJimofuhRUv49",
        "external_id": null,
        "source_draft_id": null,
        "origin_key": "recylJimofuhRUv49",
        "layer_id": "mesopotamia_architecture",
        "layer_type": "architecture",
        "name_ru": "Великий зиккурат в Уре",
        "name_en": "Great Ziggurat of Ur",
        "date_start": "-2100",
        "date_construction_end": null,
        "date_end": "-2000",
        "longitude": 46.1031,
        "latitude": 30.9628,
        "influence_radius_km": 2,
        "title_short": "Главный храм-гора древнего Шумера",
        "description": "Трехъярусная пирамидальная платформа из сырцового кирпича. Посвящена богу луны Нанне.",
        "image_url": "https://upload.wikimedia.org/wikipedia/commons/6/6b/Ziggarat_of_Ur_001.jpg",
        "source_url": "https://en.wikipedia.org/wiki/Ziggurat_of_Ur",
        "source_ids": [
          "src_ziggurat_ur_wikipedia"
        ],
        "source_refs": [
          {
            "source_id": "src_ziggurat_ur_wikipedia",
            "roles": [
              "general_reference"
            ],
            "is_primary": true
          }
        ],
        "media_ids": [
          "media_ziggurat_ur_tla2006_2006"
        ],
        "media_refs": [
          {
            "media_id": "media_ziggurat_ur_tla2006_2006",
            "display_role": "primary",
            "sort_order": 1
          }
        ],
        "relation_ids": [],
        "source_license": "CC BY-SA",
        "coordinates_confidence": "exact",
        "coordinates_source": "Britannica",
        "sequence_order": null,
        "tags": [],
        "validated": true,
        "date_valid": true,
        "has_geometry": true
      }
    },
    {
      "type": "Feature",
      "id": "b0685472-ec71-400d-8b01-8809b165ba77",
      "geometry": {
        "type": "Point",
        "coordinates": [
          12.2272,
          51.8389
        ]
      },
      "properties": {
        "id": "b0685472-ec71-400d-8b01-8809b165ba77",
        "canonical_publish_id": "b0685472-ec71-400d-8b01-8809b165ba77",
        "source_record_id": "recBRFcSAP08Kix1D",
        "legacy_ids": [
          "recBRFcSAP08Kix1D"
        ],
        "airtable_record_id": "recBRFcSAP08Kix1D",
        "external_id": null,
        "source_draft_id": null,
        "origin_key": "recBRFcSAP08Kix1D",
        "layer_id": "modernism_global",
        "layer_type": "architecture",
        "name_ru": "Здание Баухауса в Дессау",
        "name_en": "Bauhaus Building, Dessau",
        "date_start": "1925",
        "date_construction_end": null,
        "date_end": "1926",
        "longitude": 12.2272,
        "latitude": 51.8389,
        "influence_radius_km": 1,
        "title_short": "Манифест функциональной школы и стеклянного навесного фасада",
        "description": "Комплекс школы Баухаус Вальтера Гропиуса объединяет мастерские, учебные и жилые функции в ясно расчленённых объёмах. Стеклянный фасад мастерских демонстрирует отделение оболочки от несущего каркаса.",
        "image_url": "https://upload.wikimedia.org/wikipedia/commons/thumb/3/3a/Au%C3%9Fenansichten_des_Bauhaus-Geb%C3%A4udes_in_Dessau_06.jpg/1280px-Au%C3%9Fenansichten_des_Bauhaus-Geb%C3%A4udes_in_Dessau_06.jpg",
        "source_url": "https://whc.unesco.org/en/list/729/",
        "source_ids": [
          "src_bauhaus_dessau_unesco"
        ],
        "source_refs": [
          {
            "source_id": "src_bauhaus_dessau_unesco",
            "roles": [
              "coordinate_evidence",
              "date_evidence",
              "description_evidence",
              "general_reference"
            ],
            "is_primary": true
          }
        ],
        "media_ids": [
          "media_bauhaus_dessau_jenskunstfreund_2025"
        ],
        "media_refs": [
          {
            "media_id": "media_bauhaus_dessau_jenskunstfreund_2025",
            "display_role": "primary",
            "sort_order": 1
          }
        ],
        "relation_ids": [
          "e110edba-4e71-4196-a9c2-08a11b0caf37"
        ],
        "source_license": "CC BY-SA",
        "coordinates_confidence": "exact",
        "coordinates_source": "UNESCO",
        "sequence_order": null,
        "tags": [
          "architecture",
          "modernism",
          "bauhaus",
          "functionalism",
          "germany"
        ],
        "validated": true,
        "date_valid": true,
        "has_geometry": true
      }
    },
    {
      "type": "Feature",
      "id": "1f49bb51-07a2-4c86-8101-edb6e525503e",
      "geometry": {
        "type": "Point",
        "coordinates": [
          2.0283,
          48.9244
        ]
      },
      "properties": {
        "id": "1f49bb51-07a2-4c86-8101-edb6e525503e",
        "canonical_publish_id": "1f49bb51-07a2-4c86-8101-edb6e525503e",
        "source_record_id": "rec1GDGqssFGehzEx",
        "legacy_ids": [
          "h1i2t3e4-1971-4b9a-8c7d-6e5f4a3b2c1d",
          "rec1GDGqssFGehzEx"
        ],
        "airtable_record_id": "rec1GDGqssFGehzEx",
        "external_id": null,
        "source_draft_id": null,
        "origin_key": "rec1GDGqssFGehzEx",
        "layer_id": "modernism_global",
        "layer_type": "architecture",
        "name_ru": "Вилла Савой",
        "name_en": "Villa Savoye",
        "date_start": "1929",
        "date_construction_end": null,
        "date_end": "1931",
        "longitude": 2.0283,
        "latitude": 48.9244,
        "influence_radius_km": 1,
        "title_short": "Манифест современной архитектуры Ле Корбюзье",
        "description": "Воплощение 5 принципов: опоры, крыша-сад, свободный план, ленточные окна, свободный фасад.",
        "image_url": null,
        "source_url": "https://en.wikipedia.org/wiki/Villa_Savoye",
        "source_ids": [
          "src_villa_savoye_wikipedia"
        ],
        "source_refs": [
          {
            "source_id": "src_villa_savoye_wikipedia",
            "roles": [
              "general_reference"
            ],
            "is_primary": true
          }
        ],
        "media_ids": [],
        "media_refs": [],
        "relation_ids": [
          "e110edba-4e71-4196-a9c2-08a11b0caf37"
        ],
        "source_license": "CC BY-SA",
        "coordinates_confidence": "exact",
        "coordinates_source": "Britannica",
        "sequence_order": null,
        "tags": [],
        "validated": true,
        "date_valid": true,
        "has_geometry": true
      }
    },
    {
      "type": "Feature",
      "id": "04937d72-f602-4d57-9927-b4b0d137b9c0",
      "geometry": {
        "type": "Point",
        "coordinates": [
          151.2153,
          -33.8568
        ]
      },
      "properties": {
        "id": "04937d72-f602-4d57-9927-b4b0d137b9c0",
        "canonical_publish_id": "04937d72-f602-4d57-9927-b4b0d137b9c0",
        "source_record_id": "recVZ1YE2fJKVgMoa",
        "legacy_ids": [
          "recVZ1YE2fJKVgMoa"
        ],
        "airtable_record_id": "recVZ1YE2fJKVgMoa",
        "external_id": null,
        "source_draft_id": null,
        "origin_key": "recVZ1YE2fJKVgMoa",
        "layer_id": "modernism_global",
        "layer_type": "architecture",
        "name_ru": "Сиднейский оперный театр",
        "name_en": "Sydney Opera House",
        "date_start": "1957",
        "date_construction_end": null,
        "date_end": "1973",
        "longitude": 151.2153,
        "latitude": -33.8568,
        "influence_radius_km": 1,
        "title_short": "Система взаимосвязанных оболочек на границе гавани",
        "description": "Проект Йорна Утзона превратил комплекс исполнительских залов в последовательность взаимосвязанных оболочек-парусов. Архитектурный образ вырос из новаторского решения геометрии и сборки железобетонных сегментов.",
        "image_url": "https://upload.wikimedia.org/wikipedia/commons/thumb/7/7c/Sydney_Opera_House_-_Dec_2008.jpg/1280px-Sydney_Opera_House_-_Dec_2008.jpg",
        "source_url": "https://whc.unesco.org/en/list/166/",
        "source_ids": [
          "src_sydney_opera_house_unesco"
        ],
        "source_refs": [
          {
            "source_id": "src_sydney_opera_house_unesco",
            "roles": [
              "coordinate_evidence",
              "date_evidence",
              "description_evidence",
              "general_reference"
            ],
            "is_primary": true
          }
        ],
        "media_ids": [
          "media_sydney_opera_house_iliff_2008"
        ],
        "media_refs": [
          {
            "media_id": "media_sydney_opera_house_iliff_2008",
            "display_role": "primary",
            "sort_order": 1
          }
        ],
        "relation_ids": [],
        "source_license": "CC BY-SA",
        "coordinates_confidence": "exact",
        "coordinates_source": "UNESCO",
        "sequence_order": null,
        "tags": [
          "architecture",
          "modern",
          "opera",
          "theatre",
          "australia",
          "sydney"
        ],
        "validated": true,
        "date_valid": true,
        "has_geometry": true
      }
    },
    {
      "type": "Feature",
      "id": "acfb7492-c49d-4e71-9bbc-bd446b52d32d",
      "geometry": {
        "type": "Point",
        "coordinates": [
          2.3458,
          48.8461
        ]
      },
      "properties": {
        "id": "acfb7492-c49d-4e71-9bbc-bd446b52d32d",
        "canonical_publish_id": "acfb7492-c49d-4e71-9bbc-bd446b52d32d",
        "source_record_id": "recAJJSQH0dvmnpp0",
        "legacy_ids": [
          "a1r2d3e4-1928-4b9a-8c7d-6e5f4a3b2c1d",
          "recAJJSQH0dvmnpp0"
        ],
        "airtable_record_id": "recAJJSQH0dvmnpp0",
        "external_id": null,
        "source_draft_id": null,
        "origin_key": "recAJJSQH0dvmnpp0",
        "layer_id": "neoclassicism_france",
        "layer_type": "architecture",
        "name_ru": "Пантеон (Париж)",
        "name_en": "Panthéon (Paris)",
        "date_start": "1758",
        "date_construction_end": null,
        "date_end": "1790",
        "longitude": 2.3458,
        "latitude": 48.8461,
        "influence_radius_km": 1,
        "title_short": "Храм Просвещения и национальный мавзолей Франции",
        "description": "Монументальное здание Суффло, вдохновлённое античностью. Место погребения Гюго, Золя, Кюри.",
        "image_url": "https://upload.wikimedia.org/wikipedia/commons/8/80/Pantheon_of_Paris_007.JPG",
        "source_url": "https://en.wikipedia.org/wiki/Panth%C3%A9on",
        "source_ids": [
          "src_pantheon_paris_wikipedia"
        ],
        "source_refs": [
          {
            "source_id": "src_pantheon_paris_wikipedia",
            "roles": [
              "general_reference"
            ],
            "is_primary": true
          }
        ],
        "media_ids": [
          "media_pantheon_paris_moonik_2011"
        ],
        "media_refs": [
          {
            "media_id": "media_pantheon_paris_moonik_2011",
            "display_role": "primary",
            "sort_order": 1
          }
        ],
        "relation_ids": [
          "bd667055-80ef-405d-8c2b-e1b9642972b5"
        ],
        "source_license": "CC BY-SA",
        "coordinates_confidence": "exact",
        "coordinates_source": "Britannica",
        "sequence_order": null,
        "tags": [],
        "validated": true,
        "date_valid": true,
        "has_geometry": true
      }
    },
    {
      "type": "Feature",
      "id": "7f52d67f-ea2b-4c40-aec0-9aef0597dddb",
      "geometry": {
        "type": "Point",
        "coordinates": [
          55.2741,
          25.1972
        ]
      },
      "properties": {
        "id": "7f52d67f-ea2b-4c40-aec0-9aef0597dddb",
        "canonical_publish_id": "7f52d67f-ea2b-4c40-aec0-9aef0597dddb",
        "source_record_id": "rec0x9MvhXQFWErOy",
        "legacy_ids": [
          "rec0x9MvhXQFWErOy",
          "x1y2z3a4-1122-4b9a-8c7d-6e5f4a3b2c1d"
        ],
        "airtable_record_id": "rec0x9MvhXQFWErOy",
        "external_id": null,
        "source_draft_id": null,
        "origin_key": "rec0x9MvhXQFWErOy",
        "layer_id": "neofuturism_skyscrapers",
        "layer_type": "architecture",
        "name_ru": "Бурдж-Халифа",
        "name_en": "Burj Khalifa",
        "date_start": "2004",
        "date_construction_end": null,
        "date_end": "2010",
        "longitude": 55.2741,
        "latitude": 25.1972,
        "influence_radius_km": 5,
        "title_short": "Самое высокое здание в истории человечества",
        "description": "828-метровый небоскрёб. Форма основана на геометрии цветка и минимизирует ветровые нагрузки.",
        "image_url": null,
        "source_url": "https://www.burjkhalifa.ae/en/",
        "source_ids": [
          "src_burj_khalifa_official"
        ],
        "source_refs": [
          {
            "source_id": "src_burj_khalifa_official",
            "roles": [
              "general_reference"
            ],
            "is_primary": true
          }
        ],
        "media_ids": [],
        "media_refs": [],
        "relation_ids": [],
        "source_license": "CC BY-SA",
        "coordinates_confidence": "exact",
        "coordinates_source": "Official Site",
        "sequence_order": null,
        "tags": [],
        "validated": true,
        "date_valid": true,
        "has_geometry": true
      }
    },
    {
      "type": "Feature",
      "id": "8f5d2e1a-2580-4c11-9a3f-123456789abc",
      "geometry": {
        "type": "Point",
        "coordinates": [
          -1.8262,
          51.1789
        ]
      },
      "properties": {
        "id": "8f5d2e1a-2580-4c11-9a3f-123456789abc",
        "canonical_publish_id": "8f5d2e1a-2580-4c11-9a3f-123456789abc",
        "source_record_id": "recZsGTVquE5d26YO",
        "legacy_ids": [
          "recZsGTVquE5d26YO"
        ],
        "airtable_record_id": "recZsGTVquE5d26YO",
        "external_id": null,
        "source_draft_id": null,
        "origin_key": "recZsGTVquE5d26YO",
        "layer_id": "neolithic_global",
        "layer_type": "architecture",
        "name_ru": "Стоунхендж",
        "name_en": "Stonehenge",
        "date_start": "-3100",
        "date_construction_end": null,
        "date_end": "-1600",
        "longitude": -1.8262,
        "latitude": 51.1789,
        "influence_radius_km": 5,
        "title_short": "Крупнейший мегалитический комплекс Европы",
        "description": "Доисторический памятник из кольца камней весом до 50 тонн. Включает рвы и курганы, ориентированные на солнцестояние.",
        "image_url": "https://upload.wikimedia.org/wikipedia/commons/3/3c/Stonehenge2007_07_30.jpg",
        "source_url": "https://whc.unesco.org/en/list/373/",
        "source_ids": [
          "src_stonehenge_unesco"
        ],
        "source_refs": [
          {
            "source_id": "src_stonehenge_unesco",
            "roles": [
              "general_reference"
            ],
            "is_primary": true
          }
        ],
        "media_ids": [
          "media_stonehenge_wiscombe_2007"
        ],
        "media_refs": [
          {
            "media_id": "media_stonehenge_wiscombe_2007",
            "display_role": "primary",
            "sort_order": 1
          }
        ],
        "relation_ids": [],
        "source_license": "PD",
        "coordinates_confidence": "exact",
        "coordinates_source": "UNESCO",
        "sequence_order": null,
        "tags": [],
        "validated": true,
        "date_valid": true,
        "has_geometry": true
      }
    },
    {
      "type": "Feature",
      "id": "8a68e7c4-bd4c-44c8-8b7d-ba41b24ca570",
      "geometry": {
        "type": "Point",
        "coordinates": [
          11.256,
          43.7731
        ]
      },
      "properties": {
        "id": "8a68e7c4-bd4c-44c8-8b7d-ba41b24ca570",
        "canonical_publish_id": "8a68e7c4-bd4c-44c8-8b7d-ba41b24ca570",
        "source_record_id": "recFA7xPKWUl4HBgL",
        "legacy_ids": [
          "recFA7xPKWUl4HBgL"
        ],
        "airtable_record_id": "recFA7xPKWUl4HBgL",
        "external_id": null,
        "source_draft_id": null,
        "origin_key": "recFA7xPKWUl4HBgL",
        "layer_id": "renaissance_italy",
        "layer_type": "architecture",
        "name_ru": "Купол Брунеллески (собор Санта-Мария-дель-Фьоре)",
        "name_en": "Brunelleschi’s Dome (Florence Cathedral)",
        "date_start": "1420",
        "date_construction_end": null,
        "date_end": "1436",
        "longitude": 11.256,
        "latitude": 43.7731,
        "influence_radius_km": 1,
        "title_short": "Крупнейший каменный свод, возведённый без сплошных деревянных кружал",
        "description": "Восьмигранный двойной купол, построенный Филиппо Брунеллески в 1420–1436 годах. Система оболочек, горизонтальных связей и кирпичной кладки «ёлочкой» позволила возвести свод без сплошной временной опалубки.",
        "image_url": "https://upload.wikimedia.org/wikipedia/commons/thumb/6/69/Santa_Maria_del_Fiore_Cathedral_Florence_04_2024_0801.jpg/960px-Santa_Maria_del_Fiore_Cathedral_Florence_04_2024_0801.jpg",
        "source_url": "https://duomo.firenze.it/en/discover/dome",
        "source_ids": [
          "src_brunelleschi_dome_opera_duomo"
        ],
        "source_refs": [
          {
            "source_id": "src_brunelleschi_dome_opera_duomo",
            "roles": [
              "coordinate_evidence",
              "date_evidence",
              "description_evidence",
              "general_reference"
            ],
            "is_primary": true
          }
        ],
        "media_ids": [
          "media_brunelleschi_dome_mariordo_2024"
        ],
        "media_refs": [
          {
            "media_id": "media_brunelleschi_dome_mariordo_2024",
            "display_role": "primary",
            "sort_order": 1
          }
        ],
        "relation_ids": [
          "8fde422b-7b31-4715-958e-952dd246e27d"
        ],
        "source_license": "CC BY-SA",
        "coordinates_confidence": "exact",
        "coordinates_source": "Official Site",
        "sequence_order": null,
        "tags": [
          "architecture",
          "renaissance",
          "dome",
          "florence",
          "italy"
        ],
        "validated": true,
        "date_valid": true,
        "has_geometry": true
      }
    },
    {
      "type": "Feature",
      "id": "393c7d17-d266-4e8b-8412-b96eb427f941",
      "geometry": {
        "type": "Point",
        "coordinates": [
          12.4533,
          41.9022
        ]
      },
      "properties": {
        "id": "393c7d17-d266-4e8b-8412-b96eb427f941",
        "canonical_publish_id": "393c7d17-d266-4e8b-8412-b96eb427f941",
        "source_record_id": "rec7xto7TNSberKPg",
        "legacy_ids": [
          "p1a2n3t4-1758-4b9a-8c7d-6e5f4a3b2c1d",
          "rec7xto7TNSberKPg"
        ],
        "airtable_record_id": "rec7xto7TNSberKPg",
        "external_id": null,
        "source_draft_id": null,
        "origin_key": "rec7xto7TNSberKPg",
        "layer_id": "renaissance_italy",
        "layer_type": "architecture",
        "name_ru": "Собор Святого Петра",
        "name_en": "St. Peter's Basilica",
        "date_start": "1506",
        "date_construction_end": null,
        "date_end": "1626",
        "longitude": 12.4533,
        "latitude": 41.9022,
        "influence_radius_km": 1,
        "title_short": "Величайший собор христианского мира",
        "description": "Плод работы Браманте, Рафаэля и Микеланджело. Купол стал образцом для западной архитектуры.",
        "image_url": "https://upload.wikimedia.org/wikipedia/commons/thumb/f/f5/Basilica_di_San_Pietro_in_Vaticano_September_2015-1a.jpg/1280px-Basilica_di_San_Pietro_in_Vaticano_September_2015-1a.jpg",
        "source_url": "https://en.wikipedia.org/wiki/St._Peter%27s_Basilica",
        "source_ids": [
          "src_st_peters_basilica_wikipedia"
        ],
        "source_refs": [
          {
            "source_id": "src_st_peters_basilica_wikipedia",
            "roles": [
              "general_reference"
            ],
            "is_primary": true
          }
        ],
        "media_ids": [
          "media_st_peters_alvesgaspar_2015"
        ],
        "media_refs": [
          {
            "media_id": "media_st_peters_alvesgaspar_2015",
            "display_role": "primary",
            "sort_order": 1
          }
        ],
        "relation_ids": [
          "6f1ff09a-e6ce-4c01-bd5c-caa386b13a0a",
          "83f297bb-a954-4091-b6a1-36cc4c135010",
          "8fde422b-7b31-4715-958e-952dd246e27d"
        ],
        "source_license": "CC BY-SA",
        "coordinates_confidence": "exact",
        "coordinates_source": "Vatican",
        "sequence_order": null,
        "tags": [],
        "validated": true,
        "date_valid": true,
        "has_geometry": true
      }
    },
    {
      "type": "Feature",
      "id": "92ba97a4-ac18-4e17-a5c8-34c5b81bfcb8",
      "geometry": {
        "type": "Point",
        "coordinates": [
          11.559899,
          45.531743
        ]
      },
      "properties": {
        "id": "92ba97a4-ac18-4e17-a5c8-34c5b81bfcb8",
        "canonical_publish_id": "92ba97a4-ac18-4e17-a5c8-34c5b81bfcb8",
        "source_record_id": "recV2eIeq3ccuUvYu",
        "legacy_ids": [
          "recV2eIeq3ccuUvYu"
        ],
        "airtable_record_id": "recV2eIeq3ccuUvYu",
        "external_id": null,
        "source_draft_id": null,
        "origin_key": "recV2eIeq3ccuUvYu",
        "layer_id": "renaissance_italy",
        "layer_type": "architecture",
        "name_ru": "Вилла Альмерико-Капра «Ла Ротонда»",
        "name_en": "Villa Almerico Capra “La Rotonda”",
        "date_start": "1567",
        "date_construction_end": null,
        "date_end": "1605",
        "longitude": 11.559899,
        "latitude": 45.531743,
        "influence_radius_km": 1,
        "title_short": "Центрическая вилла-храм Палладио с четырьмя равноправными фасадами",
        "description": "Центрическая загородная резиденция Андреа Палладио: купольный зал окружён четырьмя портиками, каждый из которых обращён к своему фрагменту ландшафта. Композиция стала канонической моделью палладианства.",
        "image_url": "https://upload.wikimedia.org/wikipedia/commons/thumb/8/86/07-Villa-Rotonda-Palladio.jpg/1280px-07-Villa-Rotonda-Palladio.jpg",
        "source_url": "https://www.villalarotonda.it/en/",
        "source_ids": [
          "src_villa_rotonda_official"
        ],
        "source_refs": [
          {
            "source_id": "src_villa_rotonda_official",
            "roles": [
              "coordinate_evidence",
              "date_evidence",
              "description_evidence",
              "general_reference"
            ],
            "is_primary": true
          }
        ],
        "media_ids": [
          "media_villa_rotonda_quinok_2013"
        ],
        "media_refs": [
          {
            "media_id": "media_villa_rotonda_quinok_2013",
            "display_role": "primary",
            "sort_order": 1
          }
        ],
        "relation_ids": [
          "6f1ff09a-e6ce-4c01-bd5c-caa386b13a0a"
        ],
        "source_license": "CC BY-SA",
        "coordinates_confidence": "exact",
        "coordinates_source": "Official Site",
        "sequence_order": null,
        "tags": [
          "architecture",
          "renaissance",
          "villa",
          "palladio",
          "vicenza",
          "italy"
        ],
        "validated": true,
        "date_valid": true,
        "has_geometry": true
      }
    },
    {
      "type": "Feature",
      "id": "e5e19f09-054f-4e38-9733-58355ca6768a",
      "geometry": {
        "type": "Point",
        "coordinates": [
          4.3561,
          43.838
        ]
      },
      "properties": {
        "id": "e5e19f09-054f-4e38-9733-58355ca6768a",
        "canonical_publish_id": "e5e19f09-054f-4e38-9733-58355ca6768a",
        "source_record_id": "reck9qzEmWLIKlKxW",
        "legacy_ids": [
          "reck9qzEmWLIKlKxW"
        ],
        "airtable_record_id": "reck9qzEmWLIKlKxW",
        "external_id": null,
        "source_draft_id": null,
        "origin_key": "reck9qzEmWLIKlKxW",
        "layer_id": "roman_empire",
        "layer_type": "architecture",
        "name_ru": "Мезон Карре в Ниме",
        "name_en": "Maison Carrée of Nîmes",
        "date_start": "0001",
        "date_construction_end": null,
        "date_end": "0100",
        "longitude": 4.3561,
        "latitude": 43.838,
        "influence_radius_km": 1,
        "title_short": "Редко сохранившийся римский храм императорского культа",
        "description": "Псевдопериптерный коринфский храм I века н. э. в римском Немаусе. Его программа была связана с императорским культом и наследниками Августа, а цельный объём сохранился исключительно полно.",
        "image_url": "https://upload.wikimedia.org/wikipedia/commons/thumb/d/df/Maison_Carree_in_Nimes_%289%29.jpg/1280px-Maison_Carree_in_Nimes_%289%29.jpg",
        "source_url": "https://whc.unesco.org/en/list/1569/",
        "source_ids": [
          "src_maison_carree_unesco"
        ],
        "source_refs": [
          {
            "source_id": "src_maison_carree_unesco",
            "roles": [
              "coordinate_evidence",
              "date_evidence",
              "description_evidence",
              "general_reference"
            ],
            "is_primary": true
          }
        ],
        "media_ids": [
          "media_maison_carree_golik_2019"
        ],
        "media_refs": [
          {
            "media_id": "media_maison_carree_golik_2019",
            "display_role": "primary",
            "sort_order": 1
          }
        ],
        "relation_ids": [
          "516d0431-71dc-4ca1-beee-76adfad68f52"
        ],
        "source_license": "CC BY-SA",
        "coordinates_confidence": "exact",
        "coordinates_source": "UNESCO",
        "sequence_order": null,
        "tags": [
          "architecture",
          "ancient",
          "roman",
          "temple",
          "france",
          "imperial"
        ],
        "validated": true,
        "date_valid": true,
        "has_geometry": true
      }
    },
    {
      "type": "Feature",
      "id": "44de5bf1-a716-46e6-8494-0e42ba5dab1c",
      "geometry": {
        "type": "Point",
        "coordinates": [
          12.4922,
          41.8902
        ]
      },
      "properties": {
        "id": "44de5bf1-a716-46e6-8494-0e42ba5dab1c",
        "canonical_publish_id": "44de5bf1-a716-46e6-8494-0e42ba5dab1c",
        "source_record_id": "rech7vNAHHh5XUTd2",
        "legacy_ids": [
          "rech7vNAHHh5XUTd2"
        ],
        "airtable_record_id": "rech7vNAHHh5XUTd2",
        "external_id": null,
        "source_draft_id": null,
        "origin_key": "rech7vNAHHh5XUTd2",
        "layer_id": "roman_empire",
        "layer_type": "architecture",
        "name_ru": "Колизей",
        "name_en": "Colosseum",
        "date_start": "0070",
        "date_construction_end": null,
        "date_end": "0080",
        "longitude": 12.4922,
        "latitude": 41.8902,
        "influence_radius_km": 1,
        "title_short": "Амфитеатр Флавиев и инженерная машина массовых зрелищ",
        "description": "Амфитеатр Флавиев, возведённый в I веке н. э. Ярусные аркады, сложная система проходов и подземных помещений организовывали движение больших потоков зрителей и постановочные зрелища.",
        "image_url": "https://upload.wikimedia.org/wikipedia/commons/thumb/5/53/Colosseum_in_Rome%2C_Italy_-_April_2007.jpg/1280px-Colosseum_in_Rome%2C_Italy_-_April_2007.jpg",
        "source_url": "https://colosseo.it/en/area/the-colosseum/",
        "source_ids": [
          "src_colosseum_official"
        ],
        "source_refs": [
          {
            "source_id": "src_colosseum_official",
            "roles": [
              "coordinate_evidence",
              "date_evidence",
              "description_evidence",
              "general_reference"
            ],
            "is_primary": true
          }
        ],
        "media_ids": [
          "media_colosseum_iliff_2007"
        ],
        "media_refs": [
          {
            "media_id": "media_colosseum_iliff_2007",
            "display_role": "primary",
            "sort_order": 1
          }
        ],
        "relation_ids": [
          "516d0431-71dc-4ca1-beee-76adfad68f52"
        ],
        "source_license": "CC BY-SA",
        "coordinates_confidence": "exact",
        "coordinates_source": "Official Site",
        "sequence_order": null,
        "tags": [
          "architecture",
          "ancient",
          "roman",
          "amphitheatre",
          "rome"
        ],
        "validated": true,
        "date_valid": true,
        "has_geometry": true
      }
    },
    {
      "type": "Feature",
      "id": "e2a3b4c5-1238-4f91-b0d2-e3f4a5b6c7d8",
      "geometry": {
        "type": "Point",
        "coordinates": [
          12.4769,
          41.8986
        ]
      },
      "properties": {
        "id": "e2a3b4c5-1238-4f91-b0d2-e3f4a5b6c7d8",
        "canonical_publish_id": "e2a3b4c5-1238-4f91-b0d2-e3f4a5b6c7d8",
        "source_record_id": "recC9HLvvR9Xi1rKR",
        "legacy_ids": [
          "recC9HLvvR9Xi1rKR"
        ],
        "airtable_record_id": "recC9HLvvR9Xi1rKR",
        "external_id": null,
        "source_draft_id": null,
        "origin_key": "recC9HLvvR9Xi1rKR",
        "layer_id": "roman_empire",
        "layer_type": "architecture",
        "name_ru": "Пантеон (Рим)",
        "name_en": "Pantheon (Rome)",
        "date_start": "0118",
        "date_construction_end": null,
        "date_end": "0128",
        "longitude": 12.4769,
        "latitude": 41.8986,
        "influence_radius_km": 1,
        "title_short": "«Храм всех богов» с величайшим куполом древности",
        "description": "Храм с неармированным бетонным куполом (43,3 м) и окулусом. Шедевр римской инженерии.",
        "image_url": "https://upload.wikimedia.org/wikipedia/commons/thumb/7/7b/Pantheon_%28Rome%29_-_Right_side_and_front.jpg/1280px-Pantheon_%28Rome%29_-_Right_side_and_front.jpg",
        "source_url": "https://en.wikipedia.org/wiki/Pantheon,_Rome",
        "source_ids": [
          "src_pantheon_rome_wikipedia"
        ],
        "source_refs": [
          {
            "source_id": "src_pantheon_rome_wikipedia",
            "roles": [
              "general_reference"
            ],
            "is_primary": true
          }
        ],
        "media_ids": [
          "media_pantheon_rome_nikonz7ii_2022"
        ],
        "media_refs": [
          {
            "media_id": "media_pantheon_rome_nikonz7ii_2022",
            "display_role": "primary",
            "sort_order": 1
          }
        ],
        "relation_ids": [
          "83f297bb-a954-4091-b6a1-36cc4c135010",
          "bd667055-80ef-405d-8c2b-e1b9642972b5"
        ],
        "source_license": "CC BY-SA",
        "coordinates_confidence": "exact",
        "coordinates_source": "Britannica",
        "sequence_order": null,
        "tags": [],
        "validated": true,
        "date_valid": true,
        "has_geometry": true
      }
    },
    {
      "type": "Feature",
      "id": "b1c2d3e4-1506-4b9a-8c7d-6e5f4a3b2c1d",
      "geometry": {
        "type": "Point",
        "coordinates": [
          -8.5442,
          42.8806
        ]
      },
      "properties": {
        "id": "b1c2d3e4-1506-4b9a-8c7d-6e5f4a3b2c1d",
        "canonical_publish_id": "b1c2d3e4-1506-4b9a-8c7d-6e5f4a3b2c1d",
        "source_record_id": "recDQaBEVGxTRjCat",
        "legacy_ids": [
          "recDQaBEVGxTRjCat"
        ],
        "airtable_record_id": "recDQaBEVGxTRjCat",
        "external_id": null,
        "source_draft_id": null,
        "origin_key": "recDQaBEVGxTRjCat",
        "layer_id": "romanesque_europe",
        "layer_type": "architecture",
        "name_ru": "Собор в Сантьяго-де-Компостела",
        "name_en": "Santiago de Compostela Cathedral",
        "date_start": "1075",
        "date_construction_end": null,
        "date_end": "1211",
        "longitude": -8.5442,
        "latitude": 42.8806,
        "influence_radius_km": 1,
        "title_short": "Главный паломнический собор средневековой Европы",
        "description": "Классическая романская базилика над гробницей апостола. Портик Славы мастера Матео.",
        "image_url": "https://upload.wikimedia.org/wikipedia/commons/thumb/a/a9/Santiago_cathedral_2021.jpg/960px-Santiago_cathedral_2021.jpg",
        "source_url": "https://catedraldesantiago.es/en/cathedral/",
        "source_ids": [
          "src_santiago_cathedral_official"
        ],
        "source_refs": [
          {
            "source_id": "src_santiago_cathedral_official",
            "roles": [
              "general_reference"
            ],
            "is_primary": true
          }
        ],
        "media_ids": [
          "media_santiago_fernando_2021"
        ],
        "media_refs": [
          {
            "media_id": "media_santiago_fernando_2021",
            "display_role": "primary",
            "sort_order": 1
          }
        ],
        "relation_ids": [],
        "source_license": "CC BY-SA",
        "coordinates_confidence": "exact",
        "coordinates_source": "Official Site",
        "sequence_order": null,
        "tags": [],
        "validated": true,
        "date_valid": true,
        "has_geometry": true
      }
    }
  ]
}
