{
  "type": "FeatureCollection",
  "name": "ARTEMIS synthetic globe context",
  "features": [
    {
      "type": "Feature",
      "id": "synthetic-earth-surface",
      "properties": {
        "capability_only": true,
        "semantic_role": "present_day_context",
        "asset_ref": "asset-synthetic-present-imagery",
        "attribution": "Synthetic ARTEMIS contract fixture; not real imagery or historical geography."
      },
      "geometry": {
        "type": "Polygon",
        "coordinates": [[[-180,-85],[180,-85],[180,85],[-180,85],[-180,-85]]]
      }
    },
    {
      "type": "Feature",
      "id": "synthetic-equator",
      "properties": {"capability_only": true, "kind": "graticule"},
      "geometry": {"type": "LineString", "coordinates": [[-180,0],[-120,0],[-60,0],[0,0],[60,0],[120,0],[180,0]]}
    },
    {
      "type": "Feature",
      "id": "synthetic-prime-meridian",
      "properties": {"capability_only": true, "kind": "graticule"},
      "geometry": {"type": "LineString", "coordinates": [[0,-85],[0,-60],[0,-30],[0,0],[0,30],[0,60],[0,85]]}
    },
    {
      "type": "Feature",
      "id": "synthetic-latitude-45n",
      "properties": {"capability_only": true, "kind": "graticule"},
      "geometry": {"type": "LineString", "coordinates": [[-180,45],[-120,45],[-60,45],[0,45],[60,45],[120,45],[180,45]]}
    },
    {
      "type": "Feature",
      "id": "synthetic-latitude-45s",
      "properties": {"capability_only": true, "kind": "graticule"},
      "geometry": {"type": "LineString", "coordinates": [[-180,-45],[-120,-45],[-60,-45],[0,-45],[60,-45],[120,-45],[180,-45]]}
    }
  ]
}